{"type":"FeatureCollection","features":[{"type":"Feature","geometry":{"type":"LineString","coordinates":[[37.633240739211125,55.69863125946439],[37.63313932211122,55.69865306825248]]},"properties":{"id":"rj_b_100_br_0_5_0","object_type":"heat_network","variant_id":"v1","start_node_id":"v1_br_0_5","end_node_id":"12","flow_tph":40.0,"diameter":125,"length":6.821366439012318,"laying_method":"base","depth_start":null,"depth_end":null,"cost":663548}},{"type":"Feature","geometry":{"type":"LineString","coordinates":[[37.63384180226262,55.69753632997158],[37.63385235598062,55.697650380670645],[37.6339010562985,55.697722607233096]]},"properties":{"id":"rj_b_200_br_0_3_1","object_type":"heat_network","variant_id":"v1","start_node_id":"v1_br_0_3","end_node_id":"13","flow_tph":19.77,"diameter":100,"length":21.31347815445836,"laying_method":"base","depth_start":null,"depth_end":null,"cost":1912842}},{"type":"Feature","geometry":{"type":"LineString","coordinates":[[37.63384180226262,55.69753632997158],[37.63378257027697,55.697516925361896],[37.6337524411436,55.6974723292097]]},"properties":{"id":"rj_e_321_e_0_8_2","object_type":"heat_network","variant_id":"v1","start_node_id":"v1_br_0_3","end_node_id":"14","flow_tph":19.73,"diameter":100,"length":9.617050879928792,"laying_method":"base","depth_start":null,"depth_end":null,"cost":863111}},{"type":"Feature","geometry":{"type":"LineString","coordinates":[[37.63234813532932,55.70021240586037],[37.63205681017639,55.70011372943784],[37.632012226474316,55.70004826125506]]},"properties":{"id":"rj_e_1109_e_0_21_3","object_type":"heat_network","variant_id":"v1","start_node_id":"v1_rj_1108","end_node_id":"6","flow_tph":15.99,"diameter":100,"length":29.15955314823702,"laying_method":"base","depth_start":null,"depth_end":null,"cost":2617012}},{"type":"Feature","geometry":{"type":"LineString","coordinates":[[37.63451764916474,55.697358686958154],[37.63384180226262,55.69753632997158]]},"properties":{"id":"rj_b_1300_br_0_1_4","object_type":"heat_network","variant_id":"v1","start_node_id":"v1_br_0_1","end_node_id":"v1_br_0_3","flow_tph":222.54000000000002,"diameter":250,"length":46.859268082502815,"laying_method":"base","depth_start":null,"depth_end":null,"cost":6341137}},{"type":"Feature","geometry":{"type":"LineString","coordinates":[[37.63234813532932,55.70021240586037],[37.632325089795486,55.70028802577063],[37.632202633606305,55.70031441743034]]},"properties":{"id":"rj_b_1500_rj_1108_5","object_type":"heat_network","variant_id":"v1","start_node_id":"v1_rj_1108","end_node_id":"8","flow_tph":18.03,"diameter":100,"length":16.778867920830923,"laying_method":"base","depth_start":null,"depth_end":null,"cost":1505870}},{"type":"Feature","geometry":{"type":"LineString","coordinates":[[37.63451764916474,55.697358686958154],[37.6344462678961,55.6972523917077]]},"properties":{"id":"rj_b_1600_br_0_1_6","object_type":"heat_network","variant_id":"v1","start_node_id":"v1_br_0_1","end_node_id":"9","flow_tph":34.53,"diameter":125,"length":12.653166867847458,"laying_method":"base","depth_start":null,"depth_end":null,"cost":1230837}},{"type":"Feature","geometry":{"type":"LineString","coordinates":[[37.6360127605668,55.69717811426127],[37.6360932402107,55.697296569490895]]},"properties":{"id":"e_0_1_b_7","object_type":"heat_network","variant_id":"v1","start_node_id":"v1_rj_2006","end_node_id":"10","flow_tph":33.14,"diameter":125,"length":14.121558496144072,"laying_method":"base","depth_start":null,"depth_end":null,"cost":1373675}},{"type":"Feature","geometry":{"type":"LineString","coordinates":[[37.6360127605668,55.69717811426127],[37.63451764916474,55.697358686958154]]},"properties":{"id":"rj_e_2007_e_0_1_8","object_type":"heat_network","variant_id":"v1","start_node_id":"v1_rj_2006","end_node_id":"v1_br_0_1","flow_tph":257.07000000000005,"diameter":250,"length":96.10783945227452,"laying_method":"base","depth_start":null,"depth_end":null,"cost":13005601}},{"type":"Feature","geometry":{"type":"LineString","coordinates":[[37.63324859067248,55.69971657722995],[37.633135616263104,55.6997043486202],[37.63312019935733,55.69970142927643],[37.63310608680248,55.69969686785064],[37.63309382067685,55.69969083955227],[37.63308387213476,55.69968357593482],[37.633076623308995,55.69967535600162],[37.63303375962736,55.6996118001207],[37.6332044989075,55.699575075115]]},"properties":{"id":"rj_e_2303_e_0_19_a_9","object_type":"heat_network","variant_id":"v1","start_node_id":"v1_rj_2302","end_node_id":"11","flow_tph":4.08,"diameter":65,"length":31.394508698026332,"laying_method":"base","depth_start":null,"depth_end":null,"cost":2468582}},{"type":"Feature","geometry":{"type":"LineString","coordinates":[[37.63364345061896,55.69957310649374],[37.63420567832631,55.699649402842816],[37.63441245914275,55.69965170268886]]},"properties":{"id":"e_0_15_a_b_a_10","object_type":"heat_network","variant_id":"v1","start_node_id":"v1_rj_1215","end_node_id":"v1_rj_2908","flow_tph":43.63,"diameter":150,"length":49.34556369073084,"laying_method":"base","depth_start":null,"depth_end":null,"cost":5206302}},{"type":"Feature","geometry":{"type":"LineString","coordinates":[[37.63441245914275,55.69965170268886],[37.63450301088458,55.69973613801912],[37.6345829261805,55.6998544638392]]},"properties":{"id":"rj_e_2909_e_0_15_a_b_11","object_type":"heat_network","variant_id":"v1","start_node_id":"v1_rj_2908","end_node_id":"2","flow_tph":18.76,"diameter":100,"length":25.082348912987896,"laying_method":"base","depth_start":null,"depth_end":null,"cost":2251091}},{"type":"Feature","geometry":{"type":"LineString","coordinates":[[37.63292511217579,55.70009431282659],[37.63300647666917,55.70024136568658],[37.6328466024688,55.700275760196696]]},"properties":{"id":"e_0_19_b_b_12","object_type":"heat_network","variant_id":"v1","start_node_id":"v1_rj_5009","end_node_id":"3","flow_tph":29.42,"diameter":125,"length":27.901097474278153,"laying_method":"base","depth_start":null,"depth_end":null,"cost":2714079}},{"type":"Feature","geometry":{"type":"LineString","coordinates":[[37.63292511217579,55.70009431282659],[37.6328294105158,55.70009923422829],[37.632813464835166,55.70010168057628],[37.63257093507287,55.700153766518675],[37.63234813532932,55.70021240586037]]},"properties":{"id":"rj_e_5010_e_0_19_b_13","object_type":"heat_network","variant_id":"v1","start_node_id":"v1_rj_5009","end_node_id":"v1_rj_1108","flow_tph":34.02,"diameter":125,"length":38.8387218813048,"laying_method":"base","depth_start":null,"depth_end":null,"cost":3778037}},{"type":"Feature","geometry":{"type":"LineString","coordinates":[[37.63384180226262,55.69753632997158],[37.63304661323291,55.69775316897954]]},"properties":{"id":"e_0_8_b_a_14","object_type":"heat_network","variant_id":"v1","start_node_id":"v1_br_0_3","end_node_id":"v1_rj_5218","flow_tph":183.04000000000002,"diameter":250,"length":55.506756345509416,"laying_method":"base","depth_start":null,"depth_end":null,"cost":7511341}},{"type":"Feature","geometry":{"type":"LineString","coordinates":[[37.63304661323291,55.69775316897954],[37.63285792049172,55.69768880911429],[37.63213536318374,55.69696478256708],[37.632024027406494,55.696963542206404],[37.63199210743602,55.69698253427235],[37.63203443949898,55.69704568983144]]},"properties":{"id":"e_0_8_b_b_15","object_type":"heat_network","variant_id":"v1","start_node_id":"v1_rj_5218","end_node_id":"15","flow_tph":31.89,"diameter":125,"length":123.7911354280187,"laying_method":"base","depth_start":null,"depth_end":null,"cost":12041783}},{"type":"Feature","geometry":{"type":"LineString","coordinates":[[37.63441245914275,55.69965170268886],[37.63448245332576,55.69959535193769],[37.6344054041544,55.69948106445311]]},"properties":{"id":"rj_b_2800_rj_611_16","object_type":"heat_network","variant_id":"v1","start_node_id":"v1_rj_2908","end_node_id":"1","flow_tph":24.87,"diameter":125,"length":21.272342975175942,"laying_method":"base","depth_start":null,"depth_end":null,"cost":2069267}},{"type":"Feature","geometry":{"type":"LineString","coordinates":[[37.63364345061896,55.69957310649374],[37.63324859067248,55.69971657722995]]},"properties":{"id":"rj_e_1216_e_0_15_a_17","object_type":"heat_network","variant_id":"v1","start_node_id":"v1_rj_1215","end_node_id":"v1_rj_2302","flow_tph":67.52000000000001,"diameter":200,"length":29.512709126691878,"laying_method":"base","depth_start":null,"depth_end":null,"cost":3549641}},{"type":"Feature","geometry":{"type":"LineString","coordinates":[[37.63852997250722,55.6977394254107],[37.636834820180866,55.69771745978502],[37.63625814066686,55.69714294258894],[37.6361468041921,55.697141705963304],[37.6360267023403,55.69716371900351],[37.6360127605668,55.69717811426127]]},"properties":{"id":"e_0_9_18","object_type":"heat_network","variant_id":"v1","start_node_id":"v1_ch_0","end_node_id":"v1_rj_2006","flow_tph":290.21000000000004,"diameter":300,"length":196.85284496327003,"laying_method":"base","depth_start":null,"depth_end":null,"cost":29532258}},{"type":"Feature","geometry":{"type":"LineString","coordinates":[[37.63324859067248,55.69971657722995],[37.63292511217579,55.70009431282659]]},"properties":{"id":"e_0_19_a_b_19","object_type":"heat_network","variant_id":"v1","start_node_id":"v1_rj_2302","end_node_id":"v1_rj_5009","flow_tph":63.440000000000005,"diameter":150,"length":46.70117771466366,"laying_method":"base","depth_start":null,"depth_end":null,"cost":4927301}},{"type":"Feature","geometry":{"type":"LineString","coordinates":[[37.633240739211125,55.69863125946439],[37.63325120910475,55.69864678820274],[37.6332555479164,55.69865579356944],[37.63364345061896,55.69957310649374]]},"properties":{"id":"e_0_12_a_20","object_type":"heat_network","variant_id":"v1","start_node_id":"v1_br_0_5","end_node_id":"v1_rj_1215","flow_tph":111.15,"diameter":200,"length":107.85790601797932,"laying_method":"base","depth_start":null,"depth_end":null,"cost":12972610}},{"type":"Feature","geometry":{"type":"LineString","coordinates":[[37.63304661323291,55.69775316897954],[37.6329868711441,55.697869239600195],[37.633240739211125,55.69863125946439]]},"properties":{"id":"rj_e_1801_e_0_7_21","object_type":"heat_network","variant_id":"v1","start_node_id":"v1_rj_5218","end_node_id":"v1_br_0_5","flow_tph":151.15,"diameter":200,"length":99.756036366,"laying_method":"base","depth_start":null,"depth_end":null,"cost":11998157}},{"type":"Feature","geometry":{"type":"LineString","coordinates":[[37.64002953630141,55.69994496673263],[37.63659501930682,55.70023254704356],[37.63644525520774,55.70024922046404],[37.6363818514204,55.700155199014695]]},"properties":{"id":"e_1_0_22","object_type":"heat_network","variant_id":"v1","start_node_id":"108","end_node_id":"4","flow_tph":47.7,"diameter":150,"length":239.03115141210952,"laying_method":"base","depth_start":null,"depth_end":null,"cost":25219460}},{"type":"Feature","geometry":{"type":"LineString","coordinates":[[37.638220879211524,55.69786868064683],[37.63533673093022,55.698471274551835],[37.63532819907548,55.69848296034856],[37.6354170560464,55.6986147317495]]},"properties":{"id":"rj_e_20000016_e_2_1_b_23","object_type":"heat_network","variant_id":"v1","start_node_id":"v1_rj_20000201","end_node_id":"5","flow_tph":26.09,"diameter":125,"length":210.40309679447444,"laying_method":"base","depth_start":null,"depth_end":null,"cost":20466961}},{"type":"Feature","geometry":{"type":"LineString","coordinates":[[37.638220879211524,55.69786868064683],[37.6382803042186,55.69795678628921]]},"properties":{"id":"rj_e_20000202_rj_e_20000016_e_2_1_24","object_type":"heat_network","variant_id":"v1","start_node_id":"v1_rj_20000201","end_node_id":"7","flow_tph":27.82,"diameter":125,"length":10.493667369271025,"laying_method":"base","depth_start":null,"depth_end":null,"cost":1020771}},{"type":"Feature","geometry":{"type":"LineString","coordinates":[[37.638567337940835,55.697797149695894],[37.63840673426989,55.69782869783094],[37.638220879211524,55.69786868064683]]},"properties":{"id":"rj_b_20000900_ch_2_25","object_type":"heat_network","variant_id":"v1","start_node_id":"v1_ch_2","end_node_id":"v1_rj_20000201","flow_tph":53.91,"diameter":150,"length":23.190220768082106,"laying_method":"base","depth_start":null,"depth_end":null,"cost":2446731}},{"type":"Feature","geometry":{"type":"LineString","coordinates":[[37.64056614961263,55.699817708610354],[37.641294092313096,55.69920662366539],[37.64141743609499,55.699091252885815],[37.64107103327565,55.69852708896751],[37.640909151784655,55.69837743221924],[37.640902500066595,55.698377692499285],[37.64076446632709,55.6984073918225]]},"properties":{"id":"e_3_0_26","object_type":"heat_network","variant_id":"v1","start_node_id":"v1_ch_3","end_node_id":"16","flow_tph":76.27,"diameter":200,"length":192.6570754630577,"laying_method":"base","depth_start":null,"depth_end":null,"cost":23171830}},{"type":"Feature","geometry":{"type":"LineString","coordinates":[[37.63804670160806,55.69707335340569],[37.63883755786919,55.6968995031024],[37.63947827741671,55.69676251294914],[37.639538146115,55.6968518286392]]},"properties":{"id":"rj_b_40000100_ch_4_27","object_type":"heat_network","variant_id":"v1","start_node_id":"v1_ch_4","end_node_id":"17","flow_tph":20.63,"diameter":100,"length":107.04176097818836,"laying_method":"base","depth_start":null,"depth_end":null,"cost":9606784}},{"type":"Feature","geometry":{"type":"Point","coordinates":[37.63852997250722,55.6977394254107]},"properties":{"id":"v1_ch_0","object_type":"heat_chamber","variant_id":"v1","diameter":300,"cost":5000000}},{"type":"Feature","geometry":{"type":"Point","coordinates":[37.63441245914275,55.69965170268886]},"properties":{"id":"v1_rj_2908","object_type":"heat_chamber","variant_id":"v1","diameter":150,"cost":3000000}},{"type":"Feature","geometry":{"type":"Point","coordinates":[37.63324859067248,55.69971657722995]},"properties":{"id":"v1_rj_2302","object_type":"heat_chamber","variant_id":"v1","diameter":200,"cost":3000000}},{"type":"Feature","geometry":{"type":"Point","coordinates":[37.63304661323291,55.69775316897954]},"properties":{"id":"v1_rj_5218","object_type":"heat_chamber","variant_id":"v1","diameter":250,"cost":5000000}},{"type":"Feature","geometry":{"type":"Point","coordinates":[37.6360127605668,55.69717811426127]},"properties":{"id":"v1_rj_2006","object_type":"heat_chamber","variant_id":"v1","diameter":300,"cost":5000000}},{"type":"Feature","geometry":{"type":"Point","coordinates":[37.63364345061896,55.69957310649374]},"properties":{"id":"v1_rj_1215","object_type":"heat_chamber","variant_id":"v1","diameter":200,"cost":3000000}},{"type":"Feature","geometry":{"type":"Point","coordinates":[37.63384180226262,55.69753632997158]},"properties":{"id":"v1_br_0_3","object_type":"heat_chamber","variant_id":"v1","diameter":250,"cost":5000000}},{"type":"Feature","geometry":{"type":"Point","coordinates":[37.633240739211125,55.69863125946439]},"properties":{"id":"v1_br_0_5","object_type":"heat_chamber","variant_id":"v1","diameter":200,"cost":3000000}},{"type":"Feature","geometry":{"type":"Point","coordinates":[37.63451764916474,55.697358686958154]},"properties":{"id":"v1_br_0_1","object_type":"heat_chamber","variant_id":"v1","diameter":250,"cost":5000000}},{"type":"Feature","geometry":{"type":"Point","coordinates":[37.63292511217579,55.70009431282659]},"properties":{"id":"v1_rj_5009","object_type":"heat_chamber","variant_id":"v1","diameter":150,"cost":3000000}},{"type":"Feature","geometry":{"type":"Point","coordinates":[37.63234813532932,55.70021240586037]},"properties":{"id":"v1_rj_1108","object_type":"heat_chamber","variant_id":"v1","diameter":125,"cost":3000000}},{"type":"Feature","geometry":{"type":"Point","coordinates":[37.638567337940835,55.697797149695894]},"properties":{"id":"v1_ch_2","object_type":"heat_chamber","variant_id":"v1","diameter":150,"cost":3000000}},{"type":"Feature","geometry":{"type":"Point","coordinates":[37.638220879211524,55.69786868064683]},"properties":{"id":"v1_rj_20000201","object_type":"heat_chamber","variant_id":"v1","diameter":150,"cost":3000000}},{"type":"Feature","geometry":{"type":"Point","coordinates":[37.64056614961263,55.699817708610354]},"properties":{"id":"v1_ch_3","object_type":"heat_chamber","variant_id":"v1","diameter":200,"cost":3000000}},{"type":"Feature","geometry":{"type":"Point","coordinates":[37.63804670160806,55.69707335340569]},"properties":{"id":"v1_ch_4","object_type":"heat_chamber","variant_id":"v1","diameter":100,"cost":3000000}},{"type":"Feature","geometry":null,"properties":{"id":"summary_v1","object_type":"variant_summary","variant_id":"v1","rank":1,"pass":1,"construction_cost":272466619,"chamber_construction_cost":55000000,"existing_chamber_tie_in_count":1,"existing_chamber_tie_in_cost":5000000,"unconnected_penalty":0,"calculated_cost":272466619,"new_network_length":1890.0622718210566,"score":13.29925214746317,"unconnected_oks_ids":[]}},{"type":"Feature","geometry":{"type":"LineString","coordinates":[[37.633240739211125,55.69863125946439],[37.63313932211122,55.69865306825248]]},"properties":{"id":"rj_b_200_br_0_6_0","object_type":"heat_network","variant_id":"v2","start_node_id":"v2_br_0_6","end_node_id":"12","flow_tph":40.0,"diameter":125,"length":6.821366439012318,"laying_method":"base","depth_start":null,"depth_end":null,"cost":663548}},{"type":"Feature","geometry":{"type":"LineString","coordinates":[[37.633824811433996,55.6975672704503],[37.63385235598062,55.697650380670645],[37.6339010562985,55.697722607233096]]},"properties":{"id":"rj_e_310_e_0_9_1","object_type":"heat_network","variant_id":"v2","start_node_id":"v2_rj_309","end_node_id":"13","flow_tph":19.77,"diameter":100,"length":18.013069370548614,"laying_method":"base","depth_start":null,"depth_end":null,"cost":1616637}},{"type":"Feature","geometry":{"type":"LineString","coordinates":[[37.633824811433996,55.6975672704503],[37.63378257027697,55.697516925361896],[37.6337524411436,55.6974723292097]]},"properties":{"id":"rj_b_400_rj_309_2","object_type":"heat_network","variant_id":"v2","start_node_id":"v2_rj_309","end_node_id":"14","flow_tph":19.73,"diameter":100,"length":11.513459456054903,"laying_method":"base","depth_start":null,"depth_end":null,"cost":1033310}},{"type":"Feature","geometry":{"type":"LineString","coordinates":[[37.63364345061896,55.69957310649374],[37.63418209032213,55.699641358093295],[37.634301115622485,55.69965046435347],[37.63441245914275,55.69965170268886]]},"properties":{"id":"e_0_16_b_a_3","object_type":"heat_network","variant_id":"v2","start_node_id":"v2_rj_115","end_node_id":"v2_rj_711","flow_tph":43.63,"diameter":150,"length":49.248537581002374,"laying_method":"base","depth_start":null,"depth_end":null,"cost":5196065}},{"type":"Feature","geometry":{"type":"LineString","coordinates":[[37.63441245914275,55.69965170268886],[37.63450301088458,55.69973613801912],[37.6345829261805,55.6998544638392]]},"properties":{"id":"rj_e_712_e_0_16_b_4","object_type":"heat_network","variant_id":"v2","start_node_id":"v2_rj_711","end_node_id":"2","flow_tph":18.76,"diameter":100,"length":25.082348912987896,"laying_method":"base","depth_start":null,"depth_end":null,"cost":2251091}},{"type":"Feature","geometry":{"type":"LineString","coordinates":[[37.63234813532932,55.70021240586037],[37.63205681017639,55.70011372943784],[37.632012226474316,55.70004826125506]]},"properties":{"id":"rj_e_1206_e_0_20_5","object_type":"heat_network","variant_id":"v2","start_node_id":"v2_rj_1205","end_node_id":"6","flow_tph":15.99,"diameter":100,"length":29.15955314823702,"laying_method":"base","depth_start":null,"depth_end":null,"cost":2617012}},{"type":"Feature","geometry":{"type":"LineString","coordinates":[[37.63234813532932,55.70021240586037],[37.632325089795486,55.70028802577063],[37.632202633606305,55.70031441743034]]},"properties":{"id":"rj_b_1600_rj_1205_6","object_type":"heat_network","variant_id":"v2","start_node_id":"v2_rj_1205","end_node_id":"8","flow_tph":18.03,"diameter":100,"length":16.778867920830923,"laying_method":"base","depth_start":null,"depth_end":null,"cost":1505870}},{"type":"Feature","geometry":{"type":"LineString","coordinates":[[37.63451764916474,55.697358686958154],[37.6344462678961,55.6972523917077]]},"properties":{"id":"rj_b_1700_br_0_1_b_7","object_type":"heat_network","variant_id":"v2","start_node_id":"v2_rj_1800","end_node_id":"9","flow_tph":34.53,"diameter":125,"length":12.653166867847458,"laying_method":"base","depth_start":null,"depth_end":null,"cost":1230837}},{"type":"Feature","geometry":{"type":"LineString","coordinates":[[37.6360127605668,55.69717811426127],[37.6360932402107,55.697296569490895]]},"properties":{"id":"e_0_1_b_8","object_type":"heat_network","variant_id":"v2","start_node_id":"v2_rj_2106","end_node_id":"10","flow_tph":33.14,"diameter":125,"length":14.121558496144072,"laying_method":"base","depth_start":null,"depth_end":null,"cost":1373675}},{"type":"Feature","geometry":{"type":"LineString","coordinates":[[37.63324859067248,55.69971657722995],[37.633135616263104,55.6997043486202],[37.63312019935733,55.69970142927643],[37.63310608680248,55.69969686785064],[37.63309382067685,55.69969083955227],[37.63308387213476,55.69968357593482],[37.633076623308995,55.69967535600162],[37.63303375962736,55.6996118001207],[37.6332044989075,55.699575075115]]},"properties":{"id":"rj_e_2403_e_0_22_a_9","object_type":"heat_network","variant_id":"v2","start_node_id":"v2_rj_2402","end_node_id":"11","flow_tph":4.08,"diameter":65,"length":31.394508698026332,"laying_method":"base","depth_start":null,"depth_end":null,"cost":2468582}},{"type":"Feature","geometry":{"type":"LineString","coordinates":[[37.63441245914275,55.69965170268886],[37.63448245332576,55.69959535193769],[37.6344054041544,55.69948106445311]]},"properties":{"id":"rj_b_3000_rj_711_10","object_type":"heat_network","variant_id":"v2","start_node_id":"v2_rj_711","end_node_id":"1","flow_tph":24.87,"diameter":125,"length":21.272342975175942,"laying_method":"base","depth_start":null,"depth_end":null,"cost":2069267}},{"type":"Feature","geometry":{"type":"LineString","coordinates":[[37.63292511217579,55.70009431282659],[37.63300647666917,55.70024136568658],[37.6328466024688,55.700275760196696]]},"properties":{"id":"e_0_22_b_b_11","object_type":"heat_network","variant_id":"v2","start_node_id":"v2_rj_5420","end_node_id":"3","flow_tph":29.42,"diameter":125,"length":27.901097474278153,"laying_method":"base","depth_start":null,"depth_end":null,"cost":2714079}},{"type":"Feature","geometry":{"type":"LineString","coordinates":[[37.63292511217579,55.70009431282659],[37.6328294105158,55.70009923422829],[37.632813464835166,55.70010168057628],[37.63257093507287,55.700153766518675],[37.63234813532932,55.70021240586037]]},"properties":{"id":"rj_e_5421_e_0_22_b_12","object_type":"heat_network","variant_id":"v2","start_node_id":"v2_rj_5420","end_node_id":"v2_rj_1205","flow_tph":34.02,"diameter":125,"length":38.8387218813048,"laying_method":"base","depth_start":null,"depth_end":null,"cost":3778037}},{"type":"Feature","geometry":{"type":"LineString","coordinates":[[37.6360127605668,55.69717811426127],[37.63451764916474,55.697358686958154]]},"properties":{"id":"rj_b_5600_rj_2106_13","object_type":"heat_network","variant_id":"v2","start_node_id":"v2_rj_2106","end_node_id":"v2_rj_1800","flow_tph":257.07,"diameter":250,"length":96.10783945227452,"laying_method":"base","depth_start":null,"depth_end":null,"cost":13005601}},{"type":"Feature","geometry":{"type":"LineString","coordinates":[[37.633240739211125,55.69863125946439],[37.63325120910475,55.69864678820274],[37.6332555479164,55.69865579356944],[37.63364345061896,55.69957310649374]]},"properties":{"id":"e_0_13_a_14","object_type":"heat_network","variant_id":"v2","start_node_id":"v2_br_0_6","end_node_id":"v2_rj_115","flow_tph":111.15,"diameter":200,"length":107.85790601797932,"laying_method":"base","depth_start":null,"depth_end":null,"cost":12972610}},{"type":"Feature","geometry":{"type":"LineString","coordinates":[[37.63451764916474,55.697358686958154],[37.63440391486091,55.697386935292556],[37.63429203523041,55.69740125570935],[37.633433449649075,55.69669907096148],[37.633362148546894,55.69669049499598],[37.632357960159624,55.69674157302722],[37.63199210743602,55.69698253427235],[37.63203443949898,55.69704568983144]]},"properties":{"id":"rj_e_1801_rj_b_1700_br_0_1_15","object_type":"heat_network","variant_id":"v2","start_node_id":"v2_rj_1800","end_node_id":"15","flow_tph":31.89,"diameter":125,"length":220.80832481094353,"laying_method":"base","depth_start":null,"depth_end":null,"cost":21479130}},{"type":"Feature","geometry":{"type":"LineString","coordinates":[[37.63852997250722,55.6977394254107],[37.636834820180866,55.69771745978502],[37.63625814066686,55.69714294258894],[37.6361468041921,55.697141705963304],[37.6360267023403,55.69716371900351],[37.6360127605668,55.69717811426127]]},"properties":{"id":"e_0_10_16","object_type":"heat_network","variant_id":"v2","start_node_id":"v2_ch_0","end_node_id":"v2_rj_2106","flow_tph":290.21,"diameter":300,"length":196.85284496327003,"laying_method":"base","depth_start":null,"depth_end":null,"cost":29532258}},{"type":"Feature","geometry":{"type":"LineString","coordinates":[[37.63364345061896,55.69957310649374],[37.63324859067248,55.69971657722995]]},"properties":{"id":"rj_e_116_e_0_16_17","object_type":"heat_network","variant_id":"v2","start_node_id":"v2_rj_115","end_node_id":"v2_rj_2402","flow_tph":67.52000000000001,"diameter":200,"length":29.512709126691878,"laying_method":"base","depth_start":null,"depth_end":null,"cost":3549641}},{"type":"Feature","geometry":{"type":"LineString","coordinates":[[37.63324859067248,55.69971657722995],[37.63292511217579,55.70009431282659]]},"properties":{"id":"e_0_22_a_b_18","object_type":"heat_network","variant_id":"v2","start_node_id":"v2_rj_2402","end_node_id":"v2_rj_5420","flow_tph":63.440000000000005,"diameter":150,"length":46.70117771466366,"laying_method":"base","depth_start":null,"depth_end":null,"cost":4927301}},{"type":"Feature","geometry":{"type":"LineString","coordinates":[[37.63451764916474,55.697358686958154],[37.633824811433996,55.6975672704503]]},"properties":{"id":"rj_b_2000_rj_1800_a_19","object_type":"heat_network","variant_id":"v2","start_node_id":"v2_rj_1800","end_node_id":"v2_rj_309","flow_tph":190.65,"diameter":250,"length":49.352983341072175,"laying_method":"base","depth_start":null,"depth_end":null,"cost":6678594}},{"type":"Feature","geometry":{"type":"LineString","coordinates":[[37.633824811433996,55.6975672704503],[37.63301208703661,55.69783060842226],[37.632978646862036,55.697876930419184],[37.633240739211125,55.69863125946439]]},"properties":{"id":"e_0_9_b_a_20","object_type":"heat_network","variant_id":"v2","start_node_id":"v2_rj_309","end_node_id":"v2_br_0_6","flow_tph":151.15,"diameter":200,"length":150.02533644742536,"laying_method":"base","depth_start":null,"depth_end":null,"cost":18044297}},{"type":"Feature","geometry":{"type":"LineString","coordinates":[[37.64002953630141,55.69994496673263],[37.63659501930682,55.70023254704356],[37.63644525520774,55.70024922046404],[37.6363818514204,55.700155199014695]]},"properties":{"id":"e_1_0_21","object_type":"heat_network","variant_id":"v2","start_node_id":"108","end_node_id":"4","flow_tph":47.7,"diameter":150,"length":239.03115141210952,"laying_method":"base","depth_start":null,"depth_end":null,"cost":25219460}},{"type":"Feature","geometry":{"type":"LineString","coordinates":[[37.638220879211524,55.69786868064683],[37.63533673093022,55.698471274551835],[37.63532819907548,55.69848296034856],[37.6354170560464,55.6986147317495]]},"properties":{"id":"rj_e_20000016_e_2_1_b_22","object_type":"heat_network","variant_id":"v2","start_node_id":"v2_rj_20000201","end_node_id":"5","flow_tph":26.09,"diameter":125,"length":210.40309679447444,"laying_method":"base","depth_start":null,"depth_end":null,"cost":20466961}},{"type":"Feature","geometry":{"type":"LineString","coordinates":[[37.638220879211524,55.69786868064683],[37.6382803042186,55.69795678628921]]},"properties":{"id":"rj_e_20000202_rj_e_20000016_e_2_1_23","object_type":"heat_network","variant_id":"v2","start_node_id":"v2_rj_20000201","end_node_id":"7","flow_tph":27.82,"diameter":125,"length":10.493667369271025,"laying_method":"base","depth_start":null,"depth_end":null,"cost":1020771}},{"type":"Feature","geometry":{"type":"LineString","coordinates":[[37.638567337940835,55.697797149695894],[37.63840673426989,55.69782869783094],[37.638220879211524,55.69786868064683]]},"properties":{"id":"rj_b_20000900_ch_2_24","object_type":"heat_network","variant_id":"v2","start_node_id":"v2_ch_2","end_node_id":"v2_rj_20000201","flow_tph":53.91,"diameter":150,"length":23.190220768082106,"laying_method":"base","depth_start":null,"depth_end":null,"cost":2446731}},{"type":"Feature","geometry":{"type":"LineString","coordinates":[[37.64056614961263,55.699817708610354],[37.641294092313096,55.69920662366539],[37.64141743609499,55.699091252885815],[37.64107103327565,55.69852708896751],[37.640909151784655,55.69837743221924],[37.640902500066595,55.698377692499285],[37.64076446632709,55.6984073918225]]},"properties":{"id":"e_3_0_25","object_type":"heat_network","variant_id":"v2","start_node_id":"v2_ch_3","end_node_id":"16","flow_tph":76.27,"diameter":200,"length":192.6570754630577,"laying_method":"base","depth_start":null,"depth_end":null,"cost":23171830}},{"type":"Feature","geometry":{"type":"LineString","coordinates":[[37.63804670160806,55.69707335340569],[37.63883755786919,55.6968995031024],[37.63947827741671,55.69676251294914],[37.639538146115,55.6968518286392]]},"properties":{"id":"rj_b_40000100_ch_4_26","object_type":"heat_network","variant_id":"v2","start_node_id":"v2_ch_4","end_node_id":"17","flow_tph":20.63,"diameter":100,"length":107.04176097818836,"laying_method":"base","depth_start":null,"depth_end":null,"cost":9606784}},{"type":"Feature","geometry":{"type":"Point","coordinates":[37.63852997250722,55.6977394254107]},"properties":{"id":"v2_ch_0","object_type":"heat_chamber","variant_id":"v2","diameter":300,"cost":5000000}},{"type":"Feature","geometry":{"type":"Point","coordinates":[37.63364345061896,55.69957310649374]},"properties":{"id":"v2_rj_115","object_type":"heat_chamber","variant_id":"v2","diameter":200,"cost":3000000}},{"type":"Feature","geometry":{"type":"Point","coordinates":[37.63324859067248,55.69971657722995]},"properties":{"id":"v2_rj_2402","object_type":"heat_chamber","variant_id":"v2","diameter":200,"cost":3000000}},{"type":"Feature","geometry":{"type":"Point","coordinates":[37.633240739211125,55.69863125946439]},"properties":{"id":"v2_br_0_6","object_type":"heat_chamber","variant_id":"v2","diameter":200,"cost":3000000}},{"type":"Feature","geometry":{"type":"Point","coordinates":[37.6360127605668,55.69717811426127]},"properties":{"id":"v2_rj_2106","object_type":"heat_chamber","variant_id":"v2","diameter":300,"cost":5000000}},{"type":"Feature","geometry":{"type":"Point","coordinates":[37.63441245914275,55.69965170268886]},"properties":{"id":"v2_rj_711","object_type":"heat_chamber","variant_id":"v2","diameter":150,"cost":3000000}},{"type":"Feature","geometry":{"type":"Point","coordinates":[37.63234813532932,55.70021240586037]},"properties":{"id":"v2_rj_1205","object_type":"heat_chamber","variant_id":"v2","diameter":125,"cost":3000000}},{"type":"Feature","geometry":{"type":"Point","coordinates":[37.63451764916474,55.697358686958154]},"properties":{"id":"v2_rj_1800","object_type":"heat_chamber","variant_id":"v2","diameter":250,"cost":5000000}},{"type":"Feature","geometry":{"type":"Point","coordinates":[37.633824811433996,55.6975672704503]},"properties":{"id":"v2_rj_309","object_type":"heat_chamber","variant_id":"v2","diameter":250,"cost":5000000}},{"type":"Feature","geometry":{"type":"Point","coordinates":[37.63292511217579,55.70009431282659]},"properties":{"id":"v2_rj_5420","object_type":"heat_chamber","variant_id":"v2","diameter":150,"cost":3000000}},{"type":"Feature","geometry":{"type":"Point","coordinates":[37.638567337940835,55.697797149695894]},"properties":{"id":"v2_ch_2","object_type":"heat_chamber","variant_id":"v2","diameter":150,"cost":3000000}},{"type":"Feature","geometry":{"type":"Point","coordinates":[37.638220879211524,55.69786868064683]},"properties":{"id":"v2_rj_20000201","object_type":"heat_chamber","variant_id":"v2","diameter":150,"cost":3000000}},{"type":"Feature","geometry":{"type":"Point","coordinates":[37.64056614961263,55.699817708610354]},"properties":{"id":"v2_ch_3","object_type":"heat_chamber","variant_id":"v2","diameter":200,"cost":3000000}},{"type":"Feature","geometry":{"type":"Point","coordinates":[37.63804670160806,55.69707335340569]},"properties":{"id":"v2_ch_4","object_type":"heat_chamber","variant_id":"v2","diameter":100,"cost":3000000}},{"type":"Feature","geometry":null,"properties":{"id":"summary_v2","object_type":"variant_summary","variant_id":"v2","rank":2,"pass":2,"construction_cost":275639979,"chamber_construction_cost":50000000,"existing_chamber_tie_in_count":1,"existing_chamber_tie_in_cost":5000000,"unconnected_penalty":0,"calculated_cost":275639979,"new_network_length":1982.8346938809545,"score":13.666423493642863,"unconnected_oks_ids":[]}}]}